[{"OBJECT_NAME":"SL-16 R/B","OBJECT_ID":"1993-059B","EPOCH":"2026-03-10T02:41:28.368096","MEAN_MOTION":14.17231594,"ECCENTRICITY":0.0018532,"INCLINATION":70.9927,"RA_OF_ASC_NODE":10.2349,"ARG_OF_PERICENTER":215.9464,"MEAN_ANOMALY":144.0415,"EPHEMERIS_TYPE":0,"CLASSIFICATION_TYPE":"U","NORAD_CAT_ID":22803,"ELEMENT_SET_NO":999,"REV_AT_EPOCH":67959,"BSTAR":-4.7306e-5,"MEAN_MOTION_DOT":-1.44e-6,"MEAN_MOTION_DDOT":0},{"OBJECT_NAME":"ARIANE 40 R/B","OBJECT_ID":"1993-061H","EPOCH":"2026-03-10T02:49:16.917888","MEAN_MOTION":14.32861206,"ECCENTRICITY":0.0009581,"INCLINATION":98.4915,"RA_OF_ASC_NODE":137.9968,"ARG_OF_PERICENTER":283.6486,"MEAN_ANOMALY":76.3631,"EPHEMERIS_TYPE":0,"CLASSIFICATION_TYPE":"U","NORAD_CAT_ID":22830,"ELEMENT_SET_NO":999,"REV_AT_EPOCH":69416,"BSTAR":0.00010245,"MEAN_MOTION_DOT":2.36e-6,"MEAN_MOTION_DDOT":0},{"OBJECT_NAME":"COSMOS 2278","OBJECT_ID":"1994-023A","EPOCH":"2026-03-10T05:37:16.984704","MEAN_MOTION":14.1437912,"ECCENTRICITY":0.0008068,"INCLINATION":71.0552,"RA_OF_ASC_NODE":173.9582,"ARG_OF_PERICENTER":12.1891,"MEAN_ANOMALY":347.9425,"EPHEMERIS_TYPE":0,"CLASSIFICATION_TYPE":"U","NORAD_CAT_ID":23087,"ELEMENT_SET_NO":999,"REV_AT_EPOCH":64488,"BSTAR":7.5171e-5,"MEAN_MOTION_DOT":9.7e-7,"MEAN_MOTION_DDOT":0},{"OBJECT_NAME":"SL-16 R/B","OBJECT_ID":"1994-023B","EPOCH":"2026-03-10T03:20:14.580096","MEAN_MOTION":14.15011712,"ECCENTRICITY":0.0005717,"INCLINATION":70.9985,"RA_OF_ASC_NODE":69.9432,"ARG_OF_PERICENTER":285.2568,"MEAN_ANOMALY":74.7922,"EPHEMERIS_TYPE":0,"CLASSIFICATION_TYPE":"U","NORAD_CAT_ID":23088,"ELEMENT_SET_NO":999,"REV_AT_EPOCH":64615,"BSTAR":-0.00010093,"MEAN_MOTION_DOT":-2.43e-6,"MEAN_MOTION_DDOT":0},{"OBJECT_NAME":"SL-16 R/B","OBJECT_ID":"1994-074B","EPOCH":"2026-03-10T01:23:07.022688","MEAN_MOTION":14.79408494,"ECCENTRICITY":0.0005817,"INCLINATION":97.7109,"RA_OF_ASC_NODE":99.8605,"ARG_OF_PERICENTER":208.9932,"MEAN_ANOMALY":178.9569,"EPHEMERIS_TYPE":0,"CLASSIFICATION_TYPE":"U","NORAD_CAT_ID":23343,"ELEMENT_SET_NO":999,"REV_AT_EPOCH":68730,"BSTAR":8.587e-5,"MEAN_MOTION_DOT":5.91e-6,"MEAN_MOTION_DDOT":0},{"OBJECT_NAME":"SL-16 R/B","OBJECT_ID":"1994-077B","EPOCH":"2026-03-10T04:35:17.696256","MEAN_MOTION":14.15561273,"ECCENTRICITY":0.0003067,"INCLINATION":70.9853,"RA_OF_ASC_NODE":351.4341,"ARG_OF_PERICENTER":211.4855,"MEAN_ANOMALY":148.6084,"EPHEMERIS_TYPE":0,"CLASSIFICATION_TYPE":"U","NORAD_CAT_ID":23405,"ELEMENT_SET_NO":999,"REV_AT_EPOCH":61630,"BSTAR":2.4298e-5,"MEAN_MOTION_DOT":0,"MEAN_MOTION_DDOT":0},{"OBJECT_NAME":"ARIANE 40+ R/B","OBJECT_ID":"1995-021B","EPOCH":"2026-03-10T03:47:42.688608","MEAN_MOTION":14.39772837,"ECCENTRICITY":0.0007663,"INCLINATION":98.4495,"RA_OF_ASC_NODE":140.6344,"ARG_OF_PERICENTER":135.18,"MEAN_ANOMALY":254.0412,"EPHEMERIS_TYPE":0,"CLASSIFICATION_TYPE":"U","NORAD_CAT_ID":23561,"ELEMENT_SET_NO":999,"REV_AT_EPOCH":61931,"BSTAR":0.00012658,"MEAN_MOTION_DOT":3.53e-6,"MEAN_MOTION_DDOT":0},{"OBJECT_NAME":"SL-16 R/B","OBJECT_ID":"1995-058B","EPOCH":"2026-03-09T16:53:04.660224","MEAN_MOTION":14.15495248,"ECCENTRICITY":0.00107933,"INCLINATION":71.022,"RA_OF_ASC_NODE":180.2259,"ARG_OF_PERICENTER":125.7746,"MEAN_ANOMALY":234.4382,"EPHEMERIS_TYPE":0,"CLASSIFICATION_TYPE":"U","NORAD_CAT_ID":23705,"ELEMENT_SET_NO":999,"REV_AT_EPOCH":56785,"BSTAR":0.00018469413,"MEAN_MOTION_DOT":3.14e-6,"MEAN_MOTION_DDOT":0},{"OBJECT_NAME":"SL-16 R/B","OBJECT_ID":"1996-051B","EPOCH":"2026-03-09T17:47:08.854080","MEAN_MOTION":14.12415709,"ECCENTRICITY":0.00150547,"INCLINATION":70.7604,"RA_OF_ASC_NODE":175.1301,"ARG_OF_PERICENTER":147.984,"MEAN_ANOMALY":212.2198,"EPHEMERIS_TYPE":0,"CLASSIFICATION_TYPE":"U","NORAD_CAT_ID":24298,"ELEMENT_SET_NO":999,"REV_AT_EPOCH":52165,"BSTAR":8.7951502e-5,"MEAN_MOTION_DOT":1.13e-6,"MEAN_MOTION_DDOT":0},{"OBJECT_NAME":"ORBVIEW 2 (SEASTAR)","OBJECT_ID":"1997-037A","EPOCH":"2026-03-10T01:05:06.173376","MEAN_MOTION":14.35495267,"ECCENTRICITY":0.0003098,"INCLINATION":98.8568,"RA_OF_ASC_NODE":233.3664,"ARG_OF_PERICENTER":71.4417,"MEAN_ANOMALY":288.7104,"EPHEMERIS_TYPE":0,"CLASSIFICATION_TYPE":"U","NORAD_CAT_ID":24883,"ELEMENT_SET_NO":999,"REV_AT_EPOCH":50852,"BSTAR":0.00015062,"MEAN_MOTION_DOT":3.87e-6,"MEAN_MOTION_DDOT":0},{"OBJECT_NAME":"SL-16 R/B","OBJECT_ID":"1998-043G","EPOCH":"2026-03-09T20:55:34.365792","MEAN_MOTION":14.26049928,"ECCENTRICITY":0.00102097,"INCLINATION":98.8253,"RA_OF_ASC_NODE":22.2366,"ARG_OF_PERICENTER":19.8771,"MEAN_ANOMALY":340.2805,"EPHEMERIS_TYPE":0,"CLASSIFICATION_TYPE":"U","NORAD_CAT_ID":25400,"ELEMENT_SET_NO":999,"REV_AT_EPOCH":43901,"BSTAR":6.5699284e-5,"MEAN_MOTION_DOT":1.12e-6,"MEAN_MOTION_DDOT":0},{"OBJECT_NAME":"SL-16 R/B","OBJECT_ID":"1998-045B","EPOCH":"2026-03-09T17:08:48.193152","MEAN_MOTION":14.16190002,"ECCENTRICITY":0.00067331,"INCLINATION":71.0118,"RA_OF_ASC_NODE":181.5219,"ARG_OF_PERICENTER":8.0336,"MEAN_ANOMALY":352.0894,"EPHEMERIS_TYPE":0,"CLASSIFICATION_TYPE":"U","NORAD_CAT_ID":25407,"ELEMENT_SET_NO":999,"REV_AT_EPOCH":42710,"BSTAR":0.00011333787,"MEAN_MOTION_DOT":1.77e-6,"MEAN_MOTION_DDOT":0},{"OBJECT_NAME":"ISS (ZARYA)","OBJECT_ID":"1998-067A","EPOCH":"2026-03-10T03:48:27.800640","MEAN_MOTION":15.485572,"ECCENTRICITY":0.0007972,"INCLINATION":51.6324,"RA_OF_ASC_NODE":70.0375,"ARG_OF_PERICENTER":176.2903,"MEAN_ANOMALY":183.8146,"EPHEMERIS_TYPE":0,"CLASSIFICATION_TYPE":"U","NORAD_CAT_ID":25544,"ELEMENT_SET_NO":999,"REV_AT_EPOCH":55640,"BSTAR":0.00017626,"MEAN_MOTION_DOT":9.13e-5,"MEAN_MOTION_DDOT":0},{"OBJECT_NAME":"CZ-4B R/B","OBJECT_ID":"1999-025C","EPOCH":"2026-03-10T01:58:37.853184","MEAN_MOTION":14.18265352,"ECCENTRICITY":0.0036716,"INCLINATION":98.6626,"RA_OF_ASC_NODE":113.3547,"ARG_OF_PERICENTER":345.4857,"MEAN_ANOMALY":43.2279,"EPHEMERIS_TYPE":0,"CLASSIFICATION_TYPE":"U","NORAD_CAT_ID":25732,"ELEMENT_SET_NO":999,"REV_AT_EPOCH":38822,"BSTAR":4.78e-5,"MEAN_MOTION_DOT":5.6e-7,"MEAN_MOTION_DDOT":0},{"OBJECT_NAME":"OKEAN-O","OBJECT_ID":"1999-039A","EPOCH":"2026-03-10T03:00:11.122272","MEAN_MOTION":14.80335846,"ECCENTRICITY":0.0001255,"INCLINATION":97.9441,"RA_OF_ASC_NODE":129.0122,"ARG_OF_PERICENTER":70.1592,"MEAN_ANOMALY":289.9755,"EPHEMERIS_TYPE":0,"CLASSIFICATION_TYPE":"U","NORAD_CAT_ID":25860,"ELEMENT_SET_NO":999,"REV_AT_EPOCH":43445,"BSTAR":0.00011094,"MEAN_MOTION_DOT":7.94e-6,"MEAN_MOTION_DDOT":0},{"OBJECT_NAME":"SL-16 R/B","OBJECT_ID":"1999-039B","EPOCH":"2026-03-10T04:07:50.335968","MEAN_MOTION":14.81732333,"ECCENTRICITY":0.0013523,"INCLINATION":97.9966,"RA_OF_ASC_NODE":128.2681,"ARG_OF_PERICENTER":254.3521,"MEAN_ANOMALY":105.6199,"EPHEMERIS_TYPE":0,"CLASSIFICATION_TYPE":"U","NORAD_CAT_ID":25861,"ELEMENT_SET_NO":999,"REV_AT_EPOCH":43693,"BSTAR":9.6212e-5,"MEAN_MOTION_DOT":7.05e-6,"MEAN_MOTION_DDOT":0},{"OBJECT_NAME":"DELTA 2 R/B","OBJECT_ID":"1999-041E","EPOCH":"2026-03-10T00:11:40.599456","MEAN_MOTION":14.11838777,"ECCENTRICITY":0.0502409,"INCLINATION":51.7624,"RA_OF_ASC_NODE":300.0088,"ARG_OF_PERICENTER":349.3726,"MEAN_ANOMALY":9.6894,"EPHEMERIS_TYPE":0,"CLASSIFICATION_TYPE":"U","NORAD_CAT_ID":25876,"ELEMENT_SET_NO":999,"REV_AT_EPOCH":36307,"BSTAR":0.00024629,"MEAN_MOTION_DOT":1.293e-5,"MEAN_MOTION_DDOT":0}]
